NORAD_CAT_ID,OBJECT_NAME,OBJECT_TYPE,EPOCH,MEAN_MOTION,ECCENTRICITY,INCLINATION,RA_OF_ASC_NODE,ARG_OF_PERICENTER,MEAN_ANOMALY,BSTAR,MEAN_MOTION_DOT,MEAN_MOTION_DDOT,TLE_LINE0,TLE_LINE1,TLE_LINE2,SEMIMAJOR_AXIS,PERIOD,APOGEE,PERIGEE,DECAYED
50809.0,STARLINK-3232,PAYLOAD,2022-07-07 15:32:35,15.08839149,0.0002272,53.2174,59.2931,68.4547,291.6687,8.0305e-05,9.9e-06,0.0,0 STARLINK-3232,1 50809U 22001G   22188.64763301  .00000990  00000-0  80305-4 0  9996,2 50809  53.2174  59.2931 0002272  68.4547 291.6687 15.08839149 29370,6917.8830000000025,95.438,541.32,538.1759999999998,0.0
50809.0,STARLINK-3232,PAYLOAD,2022-07-07 21:54:07,15.08846127,0.0002232,53.2175,58.1031,70.0224,290.1008,0.00013976,1.937e-05,0.0,0 STARLINK-3232,1 50809U 22001G   22188.91258757  .00001937  00000-0  13976-3 0  9991,2 50809  53.2175  58.1031 0002232  70.0224 290.1008 15.08846127 28135,6917.861999999999,95.437,541.271,538.183,0.0
50809.0,STARLINK-3232,PAYLOAD,2022-07-08 01:04:53,15.08846846,0.0002223,53.2176,57.5081,71.7067,288.4167,0.00012089,1.637e-05,0.0,0 STARLINK-3232,1 50809U 22001G   22189.04506725  .00001637  00000-0  12089-3 0  9998,2 50809  53.2176  57.5081 0002223  71.7067 288.4167 15.08846846 28153,6917.859,95.437,541.262,538.187,0.0
50809.0,STARLINK-3232,PAYLOAD,2022-07-08 15:23:20,15.08859009,0.0002221,53.2177,54.8324,71.0117,289.1116,0.000143,1.989e-05,0.0,0 STARLINK-3232,1 50809U 22001G   22189.64121456  .00001989  00000-0  14300-3 0  9996,2 50809  53.2177  54.8324 0002221  71.0117 289.1116 15.08859009 29520,6917.821999999999,95.436,541.224,538.151,0.0
50809.0,STARLINK-3232,PAYLOAD,2022-07-08 20:09:30,15.08857971,0.0002197,53.2174,53.9402,70.3354,289.7875,0.00018423,2.646e-05,0.0,0 STARLINK-3232,1 50809U 22001G   22189.83993638  .00002646  00000-0  18423-3 0  9997,2 50809  53.2174  53.9402 0002197  70.3354 289.7875 15.08857971 28276,6917.825,95.436,541.21,538.1709999999998,0.0
50809.0,STARLINK-3232,PAYLOAD,2022-07-09 00:55:39,15.08857937,0.0002183,53.2174,53.0485,67.8506,292.2717,0.00020237,2.936e-05,0.0,0 STARLINK-3232,1 50809U 22001G   22190.03865559  .00002936  00000-0  20237-3 0  9999,2 50809  53.2174  53.0485 0002183  67.8506 292.2717 15.08857937 29584,6917.826,95.436,541.201,538.18,0.0
50809.0,STARLINK-3232,PAYLOAD,2022-07-09 15:14:07,15.08851495,0.0002178,53.2172,50.372,68.1514,291.9709,7.3601e-05,8.84e-06,0.0,0 STARLINK-3232,1 50809U 22001G   22190.63481286  .00000884  00000-0  73601-4 0  9990,2 50809  53.2172  50.3720 0002178  68.1514 291.9709 15.08851495 28399,6917.845,95.437,541.217,538.2040000000002,0.0
50809.0,STARLINK-3232,PAYLOAD,2022-07-10 00:46:27,15.08815428,0.0001574,53.2176,48.5884,60.3002,299.8147,-0.00058024,-9.504e-05,0.0,0 STARLINK-3232,1 50809U 22001G   22191.03226720 -.00009504  00000-0 -58024-3 0  9996,2 50809  53.2176  48.5884 0001574  60.3002 299.8147 15.08815428 29736,6917.955,95.439,540.909,538.732,0.0
50809.0,STARLINK-3232,PAYLOAD,2022-07-10 13:29:34,15.08808209,0.0001508,53.2173,46.2091,55.9482,304.1653,-0.00046647,-7.698e-05,0.0,0 STARLINK-3232,1 50809U 22001G   22191.56220026 -.00007698  00000-0 -46647-3 0  9997,2 50809  53.2173  46.2091 0001508  55.9482 304.1653 15.08808209 28535,6917.978,95.44,540.886,538.799,0.0
50809.0,STARLINK-3232,PAYLOAD,2022-07-10 21:26:29,15.08824259,0.0001829,53.2184,44.7243,67.6654,292.4532,-7.3297e-05,-1.454e-05,0.0,0 STARLINK-3232,1 50809U 22001G   22191.89340178 -.00001454  00000-0 -73297-4 0  9990,2 50809  53.2184  44.7243 0001829  67.6654 292.4532 15.08824259 28589,6917.929,95.439,541.059,538.528,0.0
50809.0,STARLINK-3232,PAYLOAD,2022-07-11 00:37:16,15.08830514,0.0001739,53.2183,44.1268,68.3626,291.7551,3.3199e-05,2.4e-06,0.0,0 STARLINK-3232,1 50809U 22001G   22192.02587969  .00000240  00000-0  33199-4 0  9994,2 50809  53.2183  44.1268 0001739  68.3626 291.7551 15.08830514 29884,6917.909000000002,95.438,540.977,538.571,0.0
50809.0,STARLINK-3232,PAYLOAD,2022-07-11 13:20:21,15.08838855,0.0001717,53.2182,41.7484,65.0753,295.0417,0.00046914,7.186e-05,0.0,0 STARLINK-3232,1 50809U 22001G   22192.55580248  .00007186  00000-0  46914-3 0  9999,2 50809  53.2182  41.7484 0001717  65.0753 295.0417 15.08838855 28688,6917.884,95.438,540.937,538.561,0.0
50809.0,STARLINK-3232,PAYLOAD,2022-07-11 21:17:16,15.08860127,0.0001607,53.2168,40.2623,61.9897,298.1257,0.00109,0.00017111,0.0,0 STARLINK-3232,1 50809U 22001G   22192.88700147  .00017111  00000-0  10900-2 0  9991,2 50809  53.2168  40.2623 0001607  61.9897 298.1257 15.08860127 28732,6917.819,95.436,540.7959999999998,538.572,0.0
50809.0,STARLINK-3232,PAYLOAD,2022-07-12 13:11:07,15.0886593,0.0001982,53.2152,37.2893,64.3457,295.774,0.00066773,0.00010362,0.0,0 STARLINK-3232,1 50809U 22001G   22193.54939222  .00010362  00000-0  66773-3 0  9994,2 50809  53.2152  37.2893 0001982  64.3457 295.7740 15.08865930 28833,6917.801,95.436,541.0369999999998,538.295,0.0
50809.0,STARLINK-3232,PAYLOAD,2022-07-12 19:32:39,15.08867883,0.0001633,53.2168,36.099,64.3877,295.7284,0.00058555,9.05e-05,0.0,0 STARLINK-3232,1 50809U 22001G   22193.81434789  .00009050  00000-0  58555-3 0  9993,2 50809  53.2168  36.0990 0001633  64.3877 295.7284 15.08867883 30154,6917.795,95.436,540.79,538.53,0.0
50809.0,STARLINK-3232,PAYLOAD,2022-07-12 21:08:02,15.08870395,0.0001602,53.2167,35.8016,63.6819,296.4338,0.00069978,0.00010876,0.0,0 STARLINK-3232,1 50809U 22001G   22193.88058660  .00010876  00000-0  69978-3 0  9999,2 50809  53.2167  35.8016 0001602  63.6819 296.4338 15.08870395 28880,6917.7869999999975,95.436,540.761,538.544,0.0
50809.0,STARLINK-3232,PAYLOAD,2022-07-13 13:01:53,15.0885229,0.0001774999999999,53.2166,32.8278,61.8545,298.2627,1.1010999999999997e-05,-1.13e-06,0.0,0 STARLINK-3232,1 50809U 22001G   22194.54298420 -.00000113  00000-0  11011-4 0  9993,2 50809  53.2166  32.8278 0001775  61.8545 298.2627 15.08852290 30263,6917.843000000003,95.437,540.936,538.48,0.0
50809.0,STARLINK-3232,PAYLOAD,2022-07-13 19:23:26,15.08846774,0.0001754,53.2167,31.6381,61.8537,298.2633,-6.9385e-05,-1.392e-05,0.0,0 STARLINK-3232,1 50809U 22001G   22194.80794534 -.00001392  00000-0 -69385-4 0  9997,2 50809  53.2167  31.6381 0001754  61.8537 298.2633 15.08846774 29023,6917.86,95.437,540.938,538.511,0.0
50809.0,STARLINK-3232,PAYLOAD,2022-07-13 22:34:13,15.08844519,0.0001745,53.2171,31.0435,61.5183,298.5985,-9.3055e-05,-1.769e-05,0.0,0 STARLINK-3232,1 50809U 22001G   22194.94042825 -.00001769  00000-0 -93055-4 0  9990,2 50809  53.2171  31.0435 0001745  61.5183 298.5985 15.08844519 30329,6917.8669999999975,95.437,540.939,538.524,0.0
50809.0,STARLINK-3232,PAYLOAD,2022-07-14 12:52:42,15.08835715,0.0001604,53.2183,28.3675,62.0902,298.0252,-8.0824e-05,-1.574e-05,0.0,0 STARLINK-3232,1 50809U 22001G   22195.53659860 -.00001574  00000-0 -80824-4 0  9993,2 50809  53.2183  28.3675 0001604  62.0902 298.0252 15.08835715 30416,6917.893,95.438,540.868,538.649,0.0
50809.0,STARLINK-3232,PAYLOAD,2022-07-14 19:14:14,15.08841755,0.0001597,53.2178,27.1771,64.6466,295.4692,-5.0065e-05,-1.085e-05,0.0,0 STARLINK-3232,1 50809U 22001G   22195.80155389 -.00001085  00000-0 -50065-4 0  9991,2 50809  53.2178  27.1771 0001597  64.6466 295.4692 15.08841755 29179,6917.875,95.437,540.845,538.635,0.0
50809.0,STARLINK-3232,PAYLOAD,2022-07-14 22:25:00,15.08842613,0.0001595,53.2181,26.583,62.8128,297.3027,-3.083e-05,-7.79e-06,0.0,0 STARLINK-3232,1 50809U 22001G   22195.93403316 -.00000779  00000-0 -30830-4 0  9998,2 50809  53.2181  26.5830 0001595  62.8128 297.3027 15.08842613 30477,6917.871999999999,95.437,540.841,538.634,0.0
50809.0,STARLINK-3232,PAYLOAD,2022-07-15 12:43:28,15.08839185,0.0001524,53.22,23.9067,64.0394,296.0755,4.963e-05,5.02e-06,0.0,0 STARLINK-3232,1 50809U 22001G   22196.53019349  .00000502  00000-0  49630-4 0  9994,2 50809  53.2200  23.9067 0001524  64.0394 296.0755 15.08839185 29284,6917.8830000000025,95.438,540.802,538.694,0.0
50809.0,STARLINK-3232,PAYLOAD,2022-07-15 19:05:01,15.08832883,0.0001619,53.2189,22.7181,63.173,296.9428,6.6573e-05,7.71e-06,0.0,0 STARLINK-3232,1 50809U 22001G   22196.79515858  .00000771  00000-0  66573-4 0  9991,2 50809  53.2189  22.7181 0001619  63.1730 296.9428 15.08832883 30605,6917.901999999999,95.438,540.887,538.6469999999998,0.0
50809.0,STARLINK-3232,PAYLOAD,2022-07-16 12:34:15,15.08845071,0.0001628,53.2178,19.4466,63.859,296.2569,0.0002631,3.902e-05,0.0,0 STARLINK-3232,1 50809U 22001G   22197.52379466  .00003902  00000-0  26310-3 0  9999,2 50809  53.2178  19.4466 0001628  63.8590 296.2569 15.08845071 29434,6917.865,95.437,540.856,538.604,0.0
50809.0,STARLINK-3232,PAYLOAD,2022-07-16 20:31:11,15.08841429,0.0001597,53.217,17.9589,59.7225,300.3925,0.00012216,1.657e-05,0.0,0 STARLINK-3232,1 50809U 22001G   22197.85499263  .00001657  00000-0  12216-3 0  9998,2 50809  53.2170  17.9589 0001597  59.7225 300.3925 15.08841429 30763,6917.876,95.437,540.846,538.636,0.0
50809.0,STARLINK-3232,PAYLOAD,2022-07-17 12:25:02,15.08844844,0.0001595999999999,53.2176,14.9856,61.1917,298.9235,0.00015109,2.118e-05,0.0,0 STARLINK-3232,1 50809U 22001G   22198.51739376  .00002118  00000-0  15109-3 0  9991,2 50809  53.2176  14.9856 0001596  61.1917 298.9235 15.08844844 29585,6917.866,95.437,540.835,538.626,0.0
50809.0,STARLINK-3232,PAYLOAD,2022-07-17 18:46:35,15.08841453,0.0001607,53.2177,13.796,60.9582,299.1571,5.8425e-05,6.42e-06,0.0,0 STARLINK-3232,1 50809U 22001G   22198.78235461  .00000642  00000-0  58425-4 0  9995,2 50809  53.2177  13.7960 0001607  60.9582 299.1571 15.08841453 29621,6917.876,95.437,540.8530000000002,538.629,0.0
50809.0,STARLINK-3232,PAYLOAD,2022-07-18 04:18:54,15.08838862,0.000168,53.2176,12.0122,60.1884,299.9275,-1.1212e-05,-4.66e-06,0.0,0 STARLINK-3232,1 50809U 22001G   22199.17979602 -.00000466  00000-0 -11212-4 0  9990,2 50809  53.2176  12.0122 0001680  60.1884 299.9275 15.08838862 30968,6917.884,95.438,540.911,538.587,0.0
